OBJECT_NAME,OBJECT_ID,EPOCH,MEAN_MOTION,ECCENTRICITY,INCLINATION,RA_OF_ASC_NODE,ARG_OF_PERICENTER,MEAN_ANOMALY,EPHEMERIS_TYPE,CLASSIFICATION_TYPE,NORAD_CAT_ID,ELEMENT_SET_NO,REV_AT_EPOCH,BSTAR,MEAN_MOTION_DOT,MEAN_MOTION_DDOT
ONEWEB-0473,2022-012AH,2026-07-01T20:07:32.129184,13.10373162,.00017361,87.8801,33.3556,87.7001,272.4325,0,U,51653,999,21122,-.57872877E-2,-.2007E-4,0
ONEWEB-0474,2022-012AJ,2026-07-01T19:55:19.471008,13.10370408,.00015056,87.8825,33.3448,85.3491,274.7808,0,U,51654,999,21121,-.75949295E-3,-.252E-5,0
ONEWEB-0475,2022-012AK,2026-07-01T22:53:41.108064,13.17647472,.00011756,87.9134,2.9345,92.0843,268.0423,0,U,51655,999,21563,.48581301E-4,.32E-6,0
ONEWEB-0490,2022-138A,2026-07-01T18:24:48.608928,13.19725333,.00018714,87.9190,302.0637,105.2968,254.8372,0,U,54113,999,17875,-.76363608E-4,-.18E-6,0
ONEWEB-0492,2022-138B,2026-07-01T20:50:22.082496,13.19726596,.00020632,87.9183,302.0437,106.2667,253.8692,0,U,54114,999,17877,.3674851E-5,.14E-6,0
ONEWEB-0495,2022-138C,2026-07-01T18:29:21.529248,13.19725789,.00017141,87.9183,302.0660,120.9104,239.2197,0,U,54115,999,17874,-.35754934E-4,-.1E-7,0
ONEWEB-0497,2022-138D,2026-07-01T18:47:33.396288,13.19725667,.00019187,87.9189,302.0565,102.7675,257.3672,0,U,54116,999,17873,-.1561057E-3,-.5E-6,0
ONEWEB-0499,2022-138E,2026-07-01T18:23:38.453856,13.19727373,.00017291,87.9184,302.0682,104.5368,255.5957,0,U,54117,999,17874,.63579019E-4,.38E-6,0
ONEWEB-0500,2022-138F,2026-07-01T18:27:05.216832,13.19726709,.00022662,87.9186,302.0625,104.2104,255.9281,0,U,54118,999,17875,-.60600112E-3,-.23E-5,0
ONEWEB-0501,2022-138G,2026-07-01T20:59:29.195808,13.19725520,.00017044,87.9190,302.0410,111.6840,248.4475,0,U,54119,999,17874,.8499896E-4,.47E-6,0
ONEWEB-0502,2022-138H,2026-07-01T18:49:49.664640,13.19725261,.00016975,87.9191,302.0481,103.8204,256.3118,0,U,54120,999,17875,-.11992348E-3,-.35E-6,0
ONEWEB-0503,2022-138J,2026-07-01T18:33:54.448704,13.19725937,.00017912,87.9192,302.0566,93.2627,266.8710,0,U,54121,999,17874,.14947279E-3,.73E-6,0
ONEWEB-0504,2022-138K,2026-07-01T18:15:42.840000,13.19726184,.00016827,87.9190,302.0639,103.3400,256.7921,0,U,54122,999,17875,.10596921E-3,.55E-6,0
ONEWEB-0505,2022-138L,2026-07-01T18:11:08.960640,13.19727080,.00016059,87.9195,302.0654,111.4632,248.6672,0,U,54123,999,17873,.11442985E-3,.59E-6,0
ONEWEB-0506,2022-138M,2026-07-01T21:13:07.666464,13.19724696,.00017562,87.9192,302.0375,109.3038,250.8285,0,U,54124,999,17874,.27109745E-4,.24E-6,0
ONEWEB-0507,2022-138N,2026-07-01T18:04:20.352576,13.19726374,.00018626,87.9181,302.0744,106.5193,253.6144,0,U,54125,999,17877,.20829426E-3,.96E-6,0
ONEWEB-0508,2022-138P,2026-07-01T21:38:08.551104,13.19725287,.00018806,87.9182,302.0438,112.2459,247.8874,0,U,54126,999,17877,.11064489E-3,.57E-6,0
ONEWEB-0509,2022-138Q,2026-07-01T21:01:43.164192,13.19731287,.00017868,87.9198,302.0400,106.1499,253.9831,0,U,54127,999,17874,-.2433486E-2,-.961E-5,0
ONEWEB-0510,2022-138R,2026-07-01T16:15:19.312704,13.20773191,.00022488,87.9193,271.5487,88.9783,271.1608,0,U,54128,999,18119,.22740697E-3,.105E-5,0
ONEWEB-0511,2022-138S,2026-07-01T20:57:10.863360,13.19727092,.00016383,87.9189,302.0428,96.3688,263.7632,0,U,54129,999,17877,.10050683E-3,.53E-6,0
ONEWEB-0512,2022-138T,2026-07-01T20:45:49.094784,13.19725400,.00016448,87.9182,302.0485,105.9217,254.2097,0,U,54130,999,17874,-.12944575E-3,-.39E-6,0
ONEWEB-0513,2022-138U,2026-07-01T20:45:12.653856,13.20268976,.00010209,87.9189,301.9909,111.6258,248.4984,0,U,54131,999,17865,.6676151E-5,.16E-6,0
ONEWEB-0514,2022-138V,2026-07-01T21:08:34.153440,13.19725644,.00019831,87.9191,302.0407,96.5727,263.5632,0,U,54132,999,17876,-.28728405E-4,.1E-7,0
ONEWEB-0515,2022-138W,2026-07-01T15:55:57.605088,13.20771010,.00029131,87.9201,271.5466,98.4441,261.7023,0,U,54133,999,18121,.20307073E-3,.96E-6,0
ONEWEB-0516,2022-138X,2026-07-01T18:42:59.036544,13.19726432,.00019841,87.9182,302.0656,104.2538,255.8816,0,U,54134,999,17875,-.54347277E-4,-.9E-7,0
ONEWEB-0517,2022-138Y,2026-07-01T18:13:26.103360,13.19725395,.00017581,87.9192,302.0635,91.7667,268.3667,0,U,54135,999,17875,.90678696E-4,.49E-6,0
ONEWEB-0518,2022-138Z,2026-07-01T18:40:41.976768,13.19728271,.00020477,87.9183,302.0682,105.1059,255.0300,0,U,54136,999,17875,-.93158288E-4,-.24E-6,0
ONEWEB-0519,2022-138AA,2026-07-01T06:32:52.357344,13.19727239,.00018198,87.9190,302.1611,94.6177,265.5164,0,U,54137,999,17869,.23698027E-3,.108E-5,0
ONEWEB-0520,2022-138AB,2026-07-01T18:17:59.320032,13.19725583,.00018039,87.9192,302.0641,107.6297,252.5033,0,U,54138,999,17874,-.41869493E-4,-.4E-7,0
ONEWEB-0521,2022-138AC,2026-07-01T20:54:54.823104,13.19725956,.00018418,87.9194,302.0305,92.6087,267.5256,0,U,54139,999,17870,.3653996E-5,.14E-6,0
