ONEWEB-0473             
1 51653U 22012AH  26182.83856631 -.00002007  00000+0 -57873-2 0  9998
2 51653  87.8801  33.3556 0001736  87.7001 272.4325 13.10373162211229
ONEWEB-0474             
1 51654U 22012AJ  26182.83008647 -.00000252  00000+0 -75949-3 0  9990
2 51654  87.8825  33.3448 0001505  85.3491 274.7808 13.10370408211217
ONEWEB-0475             
1 51655U 22012AK  26182.95394801  .00000032  00000+0  48581-4 0  9991
2 51655  87.9134   2.9345 0001175  92.0843 268.0423 13.17647472215633
ONEWEB-0490             
1 54113U 22138A   26182.76722927 -.00000018  00000+0 -76364-4 0  9991
2 54113  87.9190 302.0637 0001871 105.2968 254.8372 13.19725333178755
ONEWEB-0492             
1 54114U 22138B   26182.86831114  .00000014  00000+0  36749-5 0  9990
2 54114  87.9183 302.0437 0002063 106.2667 253.8692 13.19726596178775
ONEWEB-0495             
1 54115U 22138C   26182.77038807 -.00000001  00000+0 -35755-4 0  9992
2 54115  87.9183 302.0660 0001714 120.9104 239.2197 13.19725789178743
ONEWEB-0497             
1 54116U 22138D   26182.78302542 -.00000050  00000+0 -15611-3 0  9996
2 54116  87.9189 302.0565 0001918 102.7675 257.3672 13.19725667178734
ONEWEB-0499             
1 54117U 22138E   26182.76641729  .00000038  00000+0  63579-4 0  9999
2 54117  87.9184 302.0682 0001729 104.5368 255.5957 13.19727373178742
ONEWEB-0500             
1 54118U 22138F   26182.76881038 -.00000230  00000+0 -60600-3 0  9996
2 54118  87.9186 302.0625 0002266 104.2104 255.9281 13.19726709178751
ONEWEB-0501             
1 54119U 22138G   26182.87464347  .00000047  00000+0  84999-4 0  9991
2 54119  87.9190 302.0410 0001704 111.6840 248.4475 13.19725520178745
ONEWEB-0502             
1 54120U 22138H   26182.78460260 -.00000035  00000+0 -11992-3 0  9994
2 54120  87.9191 302.0481 0001697 103.8204 256.3118 13.19725261178759
ONEWEB-0503             
1 54121U 22138J   26182.77354686  .00000073  00000+0  14947-3 0  9991
2 54121  87.9192 302.0566 0001791  93.2627 266.8710 13.19725937178744
ONEWEB-0504             
1 54122U 22138K   26182.76091250  .00000055  00000+0  10597-3 0  9993
2 54122  87.9190 302.0639 0001682 103.3400 256.7921 13.19726184178753
ONEWEB-0505             
1 54123U 22138L   26182.75774260  .00000059  00000+0  11443-3 0  9997
2 54123  87.9195 302.0654 0001605 111.4632 248.6672 13.19727080178735
ONEWEB-0506             
1 54124U 22138M   26182.88411651  .00000024  00000+0  27110-4 0  9995
2 54124  87.9192 302.0375 0001756 109.3038 250.8285 13.19724696178742
ONEWEB-0507             
1 54125U 22138N   26182.75301334  .00000096  00000+0  20829-3 0  9996
2 54125  87.9181 302.0744 0001862 106.5193 253.6144 13.19726374178773
ONEWEB-0508             
1 54126U 22138P   26182.90148786  .00000057  00000+0  11064-3 0  9992
2 54126  87.9182 302.0438 0001880 112.2459 247.8874 13.19725287178771
ONEWEB-0509             
1 54127U 22138Q   26182.87619403 -.00000961  00000+0 -24335-2 0  9998
2 54127  87.9198 302.0400 0001786 106.1499 253.9831 13.19731287178744
ONEWEB-0510             
1 54128U 22138R   26182.67730686  .00000105  00000+0  22741-3 0  9992
2 54128  87.9193 271.5487 0002248  88.9783 271.1608 13.20773191181191
ONEWEB-0511             
1 54129U 22138S   26182.87304240  .00000053  00000+0  10051-3 0  9991
2 54129  87.9189 302.0428 0001638  96.3688 263.7632 13.19727092178772
ONEWEB-0512             
1 54130U 22138T   26182.86515156 -.00000039  00000+0 -12945-3 0  9992
2 54130  87.9182 302.0485 0001644 105.9217 254.2097 13.19725400178740
ONEWEB-0513             
1 54131U 22138U   26182.86472979  .00000016  00000+0  66762-5 0  9999
2 54131  87.9189 301.9909 0001020 111.6258 248.4984 13.20268976178656
ONEWEB-0514             
1 54132U 22138V   26182.88095085  .00000001  00000+0 -28728-4 0  9995
2 54132  87.9191 302.0407 0001983  96.5727 263.5632 13.19725644178763
ONEWEB-0515             
1 54133U 22138W   26182.66386117  .00000096  00000+0  20307-3 0  9998
2 54133  87.9201 271.5466 0002913  98.4441 261.7023 13.20771010181217
ONEWEB-0516             
1 54134U 22138X   26182.77984996 -.00000009  00000+0 -54347-4 0  9998
2 54134  87.9182 302.0656 0001984 104.2538 255.8816 13.19726432178752
ONEWEB-0517             
1 54135U 22138Y   26182.75932990  .00000049  00000+0  90679-4 0  9994
2 54135  87.9192 302.0635 0001758  91.7667 268.3667 13.19725395178753
ONEWEB-0518             
1 54136U 22138Z   26182.77826362 -.00000024  00000+0 -93158-4 0  9992
2 54136  87.9183 302.0682 0002047 105.1059 255.0300 13.19728271178756
ONEWEB-0519             
1 54137U 22138AA  26182.27282821  .00000108  00000+0  23698-3 0  9996
2 54137  87.9190 302.1611 0001819  94.6177 265.5164 13.19727239178697
ONEWEB-0520             
1 54138U 22138AB  26182.76249213 -.00000004  00000+0 -41869-4 0  9997
2 54138  87.9192 302.0641 0001803 107.6297 252.5033 13.19725583178740
ONEWEB-0521             
1 54139U 22138AC  26182.87146786  .00000014  00000+0  36540-5 0  9991
2 54139  87.9194 302.0305 0001841  92.6087 267.5256 13.19725956178705
